[{"OBJECT_NAME":"WEINA 1A","OBJECT_ID":"2018-011A","EPOCH":"2026-03-09T00:13:48.801504","MEAN_MOTION":15.00525085,"ECCENTRICITY":0.00035503,"INCLINATION":34.9964,"RA_OF_ASC_NODE":50.6465,"ARG_OF_PERICENTER":253.6699,"MEAN_ANOMALY":106.3619,"EPHEMERIS_TYPE":0,"CLASSIFICATION_TYPE":"U","NORAD_CAT_ID":43169,"ELEMENT_SET_NO":999,"REV_AT_EPOCH":44306,"BSTAR":0.00031000167,"MEAN_MOTION_DOT":3.96e-5,"MEAN_MOTION_DDOT":0},{"OBJECT_NAME":"STARLINK-4428","OBJECT_ID":"2022-105AA","EPOCH":"2026-03-09T15:55:26.931360","MEAN_MOTION":15.01253245,"ECCENTRICITY":0.00025835,"INCLINATION":97.6017,"RA_OF_ASC_NODE":310.2043,"ARG_OF_PERICENTER":56.708,"MEAN_ANOMALY":303.4392,"EPHEMERIS_TYPE":0,"CLASSIFICATION_TYPE":"U","NORAD_CAT_ID":53672,"ELEMENT_SET_NO":999,"REV_AT_EPOCH":19323,"BSTAR":-0.0001200629,"MEAN_MOTION_DOT":-1.6e-5,"MEAN_MOTION_DDOT":0}]
