WEINA 1A                
1 43169U 18011A   26068.00959261  .00003960  00000+0  31000-3 0  9992
2 43169  34.9964  50.6465 0003550 253.6699 106.3619 15.00525085443063
STARLINK-4428           
1 53672U 22105AA  26068.66350615 -.00001600  00000+0 -12006-3 0  9997
2 53672  97.6017 310.2043 0002584  56.7080 303.4392 15.01253245193233
